start=new Date('2022-11-19T00:00:00.000Z').valueOf();
sats=[{"REF_FRAME":"TEME","MEAN_ANOMALY":"280.8015","PERIAPSIS":"546.245","OBJECT_ID":"2020-012AE","ARG_OF_PERICENTER":"79.3130","TLE_LINE2":"2 45206  53.0564  26.2143 0001387  79.3130 280.8015 15.06402496152483","INCLINATION":"53.0564","TIME_SYSTEM":"UTC","MEAN_MOTION_DOT":"0.00003245","EPHEMERIS_TYPE":"0","RCS_SIZE":"LARGE","BSTAR":"0.00023664000000","SITE":"AFETR","APOAPSIS":"548.166","ELEMENT_SET_NO":"999","CLASSIFICATION_TYPE":"U","PERIOD":"95.592","FILE":"3662753","LAUNCH_DATE":"2020-02-17","COUNTRY_CODE":"US","TLE_LINE1":"1 45206U 20012AE  22322.42898136  .00003245  00000-0  23664-3 0  9992","MEAN_ELEMENT_THEORY":"SGP4","RA_OF_ASC_NODE":"26.2143","REV_AT_EPOCH":"15248","CENTER_NAME":"EARTH","SEMIMAJOR_AXIS":"6925.341","ECCENTRICITY":"0.00013870","NORAD_CAT_ID":"45206","OBJECT_NAME":"STARLINK-1209","EPOCH":"2022-11-18T10:17:43.989504","GP_ID":"218163700","OBJECT_TYPE":"PAYLOAD","DECAY_DATE":null,"MEAN_MOTION":"15.06402496","MEAN_MOTION_DDOT":"0.0000000000000"},{"CLASSIFICATION_TYPE":"U","ELEMENT_SET_NO":"999","PERIOD":"95.592","FILE":"3662753","SITE":"AFETR","APOAPSIS":"548.207","BSTAR":"0.00021355000000","RCS_SIZE":"LARGE","EPHEMERIS_TYPE":"0","MEAN_MOTION_DOT":"0.00002901","TLE_LINE2":"2 45207  53.0570  46.2486 0001449  77.6655 282.4496 15.06403324153152","INCLINATION":"53.0570","TIME_SYSTEM":"UTC","ARG_OF_PERICENTER":"77.6655","OBJECT_ID":"2020-012AF","REF_FRAME":"TEME","MEAN_ANOMALY":"282.4496","PERIAPSIS":"546.200","MEAN_MOTION_DDOT":"0.0000000000000","DECAY_DATE":null,"MEAN_MOTION":"15.06403324","EPOCH":"2022-11-18T10:09:45.771552","GP_ID":"218164440","OBJECT_TYPE":"PAYLOAD","SEMIMAJOR_AXIS":"6925.338","NORAD_CAT_ID":"45207","ECCENTRICITY":"0.00014490","OBJECT_NAME":"STARLINK-1210","REV_AT_EPOCH":"15315","RA_OF_ASC_NODE":"46.2486","CENTER_NAME":"EARTH","COUNTRY_CODE":"US","TLE_LINE1":"1 45207U 20012AF  22322.42344643  .00002901  00000-0  21355-3 0  9995","MEAN_ELEMENT_THEORY":"SGP4","LAUNCH_DATE":"2020-02-17"},{"GP_ID":"218163199","OBJECT_TYPE":"PAYLOAD","EPOCH":"2022-11-18T15:56:38.206176","DECAY_DATE":null,"MEAN_MOTION":"15.05592480","MEAN_MOTION_DDOT":"0.0000000000000","LAUNCH_DATE":"2020-02-17","TLE_LINE1":"1 45208U 20012AG  22322.66433109  .00004377  00000-0  31928-3 0  9994","COUNTRY_CODE":"US","MEAN_ELEMENT_THEORY":"SGP4","RA_OF_ASC_NODE":"45.1706","REV_AT_EPOCH":"15307","CENTER_NAME":"EARTH","SEMIMAJOR_AXIS":"6927.825","ECCENTRICITY":"0.00012990","NORAD_CAT_ID":"45208","OBJECT_NAME":"STARLINK-1211","MEAN_MOTION_DOT":"0.00004377","EPHEMERIS_TYPE":"0","RCS_SIZE":"LARGE","BSTAR":"0.00031928000000","SITE":"AFETR","APOAPSIS":"550.590","PERIOD":"95.643","CLASSIFICATION_TYPE":"U","ELEMENT_SET_NO":"999","FILE":"3662753","REF_FRAME":"TEME","PERIAPSIS":"548.790","MEAN_ANOMALY":"258.0221","OBJECT_ID":"2020-012AG","ARG_OF_PERICENTER":"102.0912","TLE_LINE2":"2 45208  53.0014  45.1706 0001299 102.0912 258.0221 15.05592480153078","TIME_SYSTEM":"UTC","INCLINATION":"53.0014"},{"NORAD_CAT_ID":"45210","SEMIMAJOR_AXIS":"6925.366","ECCENTRICITY":"0.00013340","OBJECT_NAME":"STARLINK-1219","CENTER_NAME":"EARTH","RA_OF_ASC_NODE":"45.9445","REV_AT_EPOCH":"15305","MEAN_ELEMENT_THEORY":"SGP4","TLE_LINE1":"1 45210U 20012AJ  22322.49348452  .00001112  00000-0  93524-4 0  9999","COUNTRY_CODE":"US","LAUNCH_DATE":"2020-02-17","MEAN_MOTION_DDOT":"0.0000000000000","MEAN_MOTION":"15.06394176","DECAY_DATE":null,"OBJECT_TYPE":"PAYLOAD","GP_ID":"218133008","EPOCH":"2022-11-18T11:50:37.062528","TIME_SYSTEM":"UTC","INCLINATION":"53.0560","TLE_LINE2":"2 45210  53.0560  45.9445 0001334  81.2980 278.8160 15.06394176153051","ARG_OF_PERICENTER":"81.2980","OBJECT_ID":"2020-012AJ","PERIAPSIS":"546.308","MEAN_ANOMALY":"278.8160","REF_FRAME":"TEME","FILE":"3662515","PERIOD":"95.593","CLASSIFICATION_TYPE":"U","ELEMENT_SET_NO":"999","APOAPSIS":"548.155","SITE":"AFETR","BSTAR":"0.00009352400000","RCS_SIZE":"LARGE","MEAN_MOTION_DOT":"0.00001112","EPHEMERIS_TYPE":"0"},{"ECCENTRICITY":"0.00013620","SEMIMAJOR_AXIS":"6925.370","NORAD_CAT_ID":"45212","OBJECT_NAME":"STARLINK-1231","CENTER_NAME":"EARTH","REV_AT_EPOCH":"15314","RA_OF_ASC_NODE":"45.2024","MEAN_ELEMENT_THEORY":"SGP4","TLE_LINE1":"1 45212U 20012AL  22322.65935596  .00002206  00000-0  16698-3 0  9991","COUNTRY_CODE":"US","LAUNCH_DATE":"2020-02-17","MEAN_MOTION_DDOT":"0.0000000000000","MEAN_MOTION":"15.06392927","DECAY_DATE":null,"GP_ID":"218164201","OBJECT_TYPE":"PAYLOAD","EPOCH":"2022-11-18T15:49:28.354944","TIME_SYSTEM":"UTC","INCLINATION":"53.0560","TLE_LINE2":"2 45212  53.0560  45.2024 0001362  73.3471 286.7668 15.06392927153140","ARG_OF_PERICENTER":"73.3471","OBJECT_ID":"2020-012AL","PERIAPSIS":"546.292","MEAN_ANOMALY":"286.7668","REF_FRAME":"TEME","FILE":"3662753","PERIOD":"95.593","ELEMENT_SET_NO":"999","CLASSIFICATION_TYPE":"U","APOAPSIS":"548.178","SITE":"AFETR","BSTAR":"0.00016698000000","RCS_SIZE":"LARGE","EPHEMERIS_TYPE":"0","MEAN_MOTION_DOT":"0.00002206"},{"MEAN_MOTION_DDOT":"0.0000000000000","GP_ID":"218163940","OBJECT_TYPE":"PAYLOAD","EPOCH":"2022-11-18T12:59:34.331712","MEAN_MOTION":"15.43455045","DECAY_DATE":null,"CENTER_NAME":"EARTH","REV_AT_EPOCH":"15415","RA_OF_ASC_NODE":"337.0354","SEMIMAJOR_AXIS":"6814.058","OBJECT_NAME":"STARLINK-1232","NORAD_CAT_ID":"45213","ECCENTRICITY":"0.00038500","LAUNCH_DATE":"2020-02-17","MEAN_ELEMENT_THEORY":"SGP4","TLE_LINE1":"1 45213U 20012AM  22322.54136958  .00011804  00000-0  26845-3 0  9994","COUNTRY_CODE":"US","APOAPSIS":"438.547","SITE":"AFETR","FILE":"3662753","PERIOD":"93.297","ELEMENT_SET_NO":"999","CLASSIFICATION_TYPE":"U","MEAN_MOTION_DOT":"0.00011804","EPHEMERIS_TYPE":"0","RCS_SIZE":"LARGE","BSTAR":"0.00026845000000","ARG_OF_PERICENTER":"23.8654","TIME_SYSTEM":"UTC","INCLINATION":"53.0587","TLE_LINE2":"2 45213  53.0587 337.0354 0003850  23.8654 336.2529 15.43455045154156","PERIAPSIS":"433.300","MEAN_ANOMALY":"336.2529","REF_FRAME":"TEME","OBJECT_ID":"2020-012AM"},{"OBJECT_ID":"2020-012AN","PERIAPSIS":"546.162","MEAN_ANOMALY":"281.6384","REF_FRAME":"TEME","TIME_SYSTEM":"UTC","INCLINATION":"53.0569","TLE_LINE2":"2 45214  53.0569  45.8984 0001561  78.4780 281.6384 15.06390386153160","ARG_OF_PERICENTER":"78.4780","RCS_SIZE":"LARGE","BSTAR":"0.00006374100000","EPHEMERIS_TYPE":"0","MEAN_MOTION_DOT":"0.00000668","FILE":"3662515","PERIOD":"95.593","ELEMENT_SET_NO":"999","CLASSIFICATION_TYPE":"U","APOAPSIS":"548.324","SITE":"AFETR","MEAN_ELEMENT_THEORY":"SGP4","TLE_LINE1":"1 45214U 20012AN  22322.49991837  .00000668  00000-0  63741-4 0  9997","COUNTRY_CODE":"US","LAUNCH_DATE":"2020-02-17","SEMIMAJOR_AXIS":"6925.378","ECCENTRICITY":"0.00015610","NORAD_CAT_ID":"45214","OBJECT_NAME":"STARLINK-1233","CENTER_NAME":"EARTH","RA_OF_ASC_NODE":"45.8984","REV_AT_EPOCH":"15316","MEAN_MOTION":"15.06390386","DECAY_DATE":null,"GP_ID":"218132259","OBJECT_TYPE":"PAYLOAD","EPOCH":"2022-11-18T11:59:52.947168","MEAN_MOTION_DDOT":"0.0000000000000"},{"BSTAR":"0.00007692000000","RCS_SIZE":"LARGE","EPHEMERIS_TYPE":"0","MEAN_MOTION_DOT":"0.00000864","CLASSIFICATION_TYPE":"U","ELEMENT_SET_NO":"999","PERIOD":"95.593","FILE":"3662753","SITE":"AFETR","APOAPSIS":"548.210","OBJECT_ID":"2020-012AP","REF_FRAME":"TEME","MEAN_ANOMALY":"279.6171","PERIAPSIS":"546.253","TLE_LINE2":"2 45215  53.0569  46.2252 0001413  80.4977 279.6171 15.06394046153091","INCLINATION":"53.0569","TIME_SYSTEM":"UTC","ARG_OF_PERICENTER":"80.4977","DECAY_DATE":null,"MEAN_MOTION":"15.06394046","EPOCH":"2022-11-18T10:20:23.515872","GP_ID":"218162949","OBJECT_TYPE":"PAYLOAD","MEAN_MOTION_DDOT":"0.0000000000000","COUNTRY_CODE":"US","TLE_LINE1":"1 45215U 20012AP  22322.43082773  .00000864  00000-0  76920-4 0  9993","MEAN_ELEMENT_THEORY":"SGP4","LAUNCH_DATE":"2020-02-17","NORAD_CAT_ID":"45215","SEMIMAJOR_AXIS":"6925.367","ECCENTRICITY":"0.00014130","OBJECT_NAME":"STARLINK-1245","REV_AT_EPOCH":"15309","RA_OF_ASC_NODE":"46.2252","CENTER_NAME":"EARTH"},{"RA_OF_ASC_NODE":"45.4442","REV_AT_EPOCH":"15318","CENTER_NAME":"EARTH","NORAD_CAT_ID":"45217","SEMIMAJOR_AXIS":"6925.361","OBJECT_NAME":"STARLINK-1271","ECCENTRICITY":"0.00014330","LAUNCH_DATE":"2020-02-17","TLE_LINE1":"1 45217U 20012AR  22322.60406565  .00001543  00000-0  12250-3 0  9993","COUNTRY_CODE":"US","MEAN_ELEMENT_THEORY":"SGP4","MEAN_MOTION_DDOT":"0.0000000000000","OBJECT_TYPE":"PAYLOAD","GP_ID":"218163701","EPOCH":"2022-11-18T14:29:51.272160","DECAY_DATE":null,"MEAN_MOTION":"15.06395855","ARG_OF_PERICENTER":"81.8927","TLE_LINE2":"2 45217  53.0559  45.4442 0001433  81.8927 278.2224 15.06395855153189","TIME_SYSTEM":"UTC","INCLINATION":"53.0559","REF_FRAME":"TEME","PERIAPSIS":"546.234","MEAN_ANOMALY":"278.2224","OBJECT_ID":"2020-012AR","SITE":"AFETR","APOAPSIS":"548.219","PERIOD":"95.592","CLASSIFICATION_TYPE":"U","ELEMENT_SET_NO":"999","FILE":"3662753","MEAN_MOTION_DOT":"0.00001543","EPHEMERIS_TYPE":"0","BSTAR":"0.00012250000000","RCS_SIZE":"LARGE"},{"LAUNCH_DATE":"2020-02-17","MEAN_ELEMENT_THEORY":"SGP4","TLE_LINE1":"1 45219U 20012AT  22322.86486859  .00012461  00000-0  84228-3 0  9992","COUNTRY_CODE":"US","CENTER_NAME":"EARTH","REV_AT_EPOCH":"15351","RA_OF_ASC_NODE":"24.2405","SEMIMAJOR_AXIS":"6923.780","ECCENTRICITY":"0.00014100","NORAD_CAT_ID":"45219","OBJECT_NAME":"STARLINK-1187","GP_ID":"218164441","OBJECT_TYPE":"PAYLOAD","EPOCH":"2022-11-18T20:45:24.646176","MEAN_MOTION":"15.06911847","DECAY_DATE":null,"MEAN_MOTION_DDOT":"0.0000000000000","PERIAPSIS":"544.669","MEAN_ANOMALY":"275.9497","REF_FRAME":"TEME","OBJECT_ID":"2020-012AT","ARG_OF_PERICENTER":"84.1653","TIME_SYSTEM":"UTC","INCLINATION":"53.0539","TLE_LINE2":"2 45219  53.0539  24.2405 0001410  84.1653 275.9497 15.06911847153518","EPHEMERIS_TYPE":"0","MEAN_MOTION_DOT":"0.00012461","BSTAR":"0.00084228000000","RCS_SIZE":"LARGE","APOAPSIS":"546.622","SITE":"AFETR","FILE":"3662753","PERIOD":"95.560","CLASSIFICATION_TYPE":"U","ELEMENT_SET_NO":"999"}];
